EYESAT-1 (AO-27)        
1 22825U 93061C   18014.50004722 -.00000003  00000-0  16446-4 0  9991
2 22825  98.8426 347.9996 0009486  76.4149 283.8089 14.30019231267336
CUTE-1 (CO-55)          
1 27844U 03031E   18014.57758971  .00000068  00000-0  50577-4 0  9997
2 27844  98.6884  25.4899 0010830  95.8150 264.4262 14.22088639754327
CUBESAT XI-IV (CO-57)   
1 27848U 03031J   18014.56471397  .00000051  00000-0  42834-4 0  9993
2 27848  98.6974  25.8211 0010719 104.9089 255.3276 14.21696162754208
CUBESAT XI 5            
1 28895U 05043F   18014.37727687  .00000149  00000-0  37523-4 0  9993
2 28895  97.8859 172.2672 0016649 191.3259 168.7572 14.63497772651146
CUTE-1.7+APD II (CO-65) 
1 32785U 08021C   18014.53432271  .00000256  00000-0  33472-4 0  9993
2 32785  97.5537  34.0021 0013028 181.5748 178.5431 14.88045549526258
COMPASS-1               
1 32787U 08021E   18014.57052470  .00000538  00000-0  57003-4 0  9997
2 32787  97.5405  44.1597 0013390 147.1181 213.0874 14.92884372526981
AAUSAT-II               
1 32788U 08021F   18014.60690774  .00000319  00000-0  34847-4 0  9995
2 32788  97.5377  47.3934 0012940 138.3907 221.8300 14.94187292527147
DELFI-C3 (DO-64)        
1 32789U 08021G   18014.61609016  .00001241  00000-0  89905-4 0  9996
2 32789  97.5342  73.1832 0014210 101.7256 258.5567 15.05677297528579
CANX-2                  
1 32790U 08021H   18014.55394333  .00000231  00000-0  30954-4 0  9992
2 32790  97.5532  32.2688 0013667 183.6747 176.4372 14.87756130526186
SEEDS II (CO-66)        
1 32791U 08021J   18014.87189024  .00000471  00000-0  53643-4 0  9993
2 32791  97.5466  39.3075 0013871 163.1156 197.0527 14.90444900526673
SWISSCUBE               
1 35932U 09051B   18014.37732165  .00000125  00000-0  39216-4 0  9998
2 35932  98.5217 162.0501 0006913 329.2626  30.8165 14.56110513441010
BEESAT                  
1 35933U 09051C   18014.48450239  .00000112  00000-0  36236-4 0  9995
2 35933  98.5257 163.6073 0005377 346.1811  13.9238 14.56219564441090
ITUPSAT 1               
1 35935U 09051E   18014.38398082  .00000083  00000-0  30132-4 0  9999
2 35935  98.5369 163.7592 0007571 337.3226  22.7635 14.55402577440953
TISAT 1                 
1 36799U 10035E   18014.40693434  .00000306  00000-0  37264-4 0  9995
2 36799  98.0845 146.7837 0012157 359.7989   0.3221 14.90667361407048
M-CUBED & EXP-1 PRIME   
1 37855U 11061F   18014.55427795  .00001198  00000-0  69459-4 0  9991
2 37855 101.7221 358.4832 0177904 176.7227 183.5195 15.03982155338080
HORYU 2                 
1 38340U 12025D   18014.61297481  .00000234  00000-0  42588-4 0  9990
2 38340  98.3746  30.9917 0011206 345.6933  14.3956 14.75483661294052
STRAND-1                
1 39090U 13009E   18014.57410111  .00000032  00000-0  26667-4 0  9994
2 39090  98.5336 222.8201 0009901  38.7909 321.3985 14.35006615255799
BRITE-AUSTRIA           
1 39091U 13009F   18014.58006913  .00000026  00000-0  24355-4 0  9992
2 39091  98.5302 222.1476 0011304  45.2824 314.9280 14.35056701255808
UNIBRITE                
1 39092U 13009G   18014.52818362  .00000016  00000-0  20900-4 0  9997
2 39092  98.5314 221.7689 0010102  39.9070 320.2856 14.34931018255778
AIST-2                  
1 39133U 13015D   18014.83277805  .00000135  00000-0  22143-4 0  9998
2 39133  64.8742 336.6048 0034454 246.6940 113.0552 15.04470599260136
SOMP                    
1 39134U 13015E   18014.06956379  .00001149  00000-0  64296-4 0  9995
2 39134  64.8632 265.2825 0029347 230.5276 129.3255 15.18712985261116
BEESAT-3                
1 39135U 13015F   18014.89820709  .00000841  00000-0  52936-4 0  9990
2 39135  64.8693 274.0032 0030743 254.7037 105.0689 15.16317783261406
BEESAT-2                
1 39136U 13015G   18014.15510611  .00000773  00000-0  50155-4 0  9993
2 39136  64.8696 278.7737 0030812 253.3004 106.4738 15.15799483260857
NEE-01 PEGASUS          
1 39151U 13018B   18014.81684166  .00000166  00000-0  28990-4 0  9991
2 39151  97.9790 109.9778 0018480  86.1515 274.1809 14.79840620254834
CUBEBUG-1 (CAPITAN BETO)
1 39153U 13018D   18014.80713707  .00000220  00000-0  35732-4 0  9999
2 39153  97.9819 110.9677 0018379  84.2589 276.0718 14.80324602254902
ESTCUBE 1               
1 39161U 13021C   18014.47447566  .00000148  00000-0  31550-4 0  9995
2 39161  98.0177 102.6277 0009207 181.4480 178.6714 14.72008828251836
POPACS 1                
1 39268U 13055D   18014.37622699  .00003036  00000-0  86964-4 0  9999
2 39268  81.0036 147.4666 0642145 319.3542  36.1334 14.32978939222417
POPACS 2                
1 39269U 13055E   18014.42476731  .00002162  00000-0  62569-4 0  9994
2 39269  81.0150 166.2694 0695190   8.2639 352.9303 14.21354025220071
POPACS 3                
1 39270U 13055F   18014.45953334  .00001648  00000-0  50478-4 0  9992
2 39270  81.0171 176.6555 0722023  39.2947 325.8392 14.14176943199928
ZACUBE-1 (TSHEPISOSAT)  
1 39417U 13066B   18014.66491726  .00000253  00000-0  38503-4 0  9998
2 39417  97.6052  51.3596 0057846 298.6179  60.9223 14.80859522224077
WNISAT-1                
1 39423U 13066H   18014.90885967  .00000129  00000-0  34675-4 0  9994
2 39423  97.7075 351.0230 0176445 135.8917 225.6520 14.52914490219972
TRITON-1                
1 39427U 13066M   18014.55859711  .00000252  00000-0  48074-4 0  9992
2 39427  97.6364  20.7256 0114929  32.2325 328.5837 14.67597191221851
GOMX 1                  
1 39430U 13066Q   18014.54955916  .00000269  00000-0  57182-4 0  9997
2 39430  97.6810   2.6481 0153071  95.5215 266.3467 14.59005122220756
BRITE-PL                
1 39431U 13066R   18014.87300795  .00000053  00000-0  21476-4 0  9991
2 39431  97.7367 339.1818 0202488 180.2485 179.8642 14.46901773219063
HUMSAT-D                
1 39433U 13066T   18014.16978537  .00000592  00000-0  63866-4 0  9997
2 39433  97.6267  75.7719 0029948 233.6047 126.2409 14.91717607225460
EAGLE 2                 
1 39436U 13066W   18014.85799292  .00068414  00000-0  99866-3 0  9990
2 39436  97.7117 138.6697 0005497  28.4757 331.6795 15.55424549229323
CUBEBUG-2 (LO-74)       
1 39440U 13066AA  18014.55359541  .00000278  00000-0  45968-4 0  9990
2 39440  97.6111  38.8455 0079923 335.3754  24.3649 14.75597308223262
NEE-02 KRYSAOR          
1 39441U 13066AB  18014.54728665  .00000185  00000-0  33565-4 0  9994
2 39441  97.6102  37.2419 0081466 339.8594  19.9407 14.74723695223139
FUNCUBE-1 (AO-73)       
1 39444U 13066AE  18014.60549278  .00000303  00000-0  44103-4 0  9997
2 39444  97.6067  52.6318 0056977 294.6672  64.8615 14.81621861222325
UWE-3                   
1 39446U 13066AG  18014.56861398  .00000243  00000-0  39265-4 0  9990
2 39446  97.6069  44.7153 0069259 317.5688  42.0180 14.78130009221832
BRITE-TORONTO           
1 40020U 14033L   18014.76685483  .00000073  00000-0  20992-4 0  9994
2 40020  97.8057 240.6767 0087963  14.5114 345.8586 14.66460512191101
DUCHIFAT-1              
1 40021U 14033M   18014.29768186  .00000495  00000-0  57011-4 0  9995
2 40021  97.9178 292.7400 0012428 331.8384  28.2159 14.90169175194038
FLOCK 1C-10             
1 40023U 14033P   18014.75908342 -.00000161  00000-0 -11077-4 0  9992
2 40023  97.9193 292.0030 0012501 337.0303  23.0341 14.89090223193984
NANOSATC-BR1            
1 40024U 14033Q   18014.73389210  .00000335  00000-0  41146-4 0  9999
2 40024  97.9124 291.7106 0011696 332.3602  27.6992 14.89452688194039
QB50P1                  
1 40025U 14033R   18014.62744825  .00000302  00000-0  38398-4 0  9994
2 40025  97.9093 290.3128 0011997 336.5278  23.5390 14.88616544193435
FLOCK 1C-7              
1 40026U 14033S   18014.73839577  .00000952  00000-0  10505-3 0  9996
2 40026  97.9220 292.9959 0011025 333.8025  26.2659 14.89837606194041
FLOCK 1C-1              
1 40027U 14033T   18014.31514430  .00000508  00000-0  59807-4 0  9995
2 40027  97.9217 291.8495 0012704 336.4036  23.6593 14.89151244193939
POPSAT-HIP-1            
1 40028U 14033U   18014.74531904  .00000476  00000-0  57265-4 0  9998
2 40028  97.9125 290.7693 0013599 334.6980  25.3570 14.88478827193940
FLOCK 1C-2              
1 40029U 14033V   18014.74389157  .00000519  00000-0  60866-4 0  9999
2 40029  97.9198 292.1184 0013968 331.0369  29.0072 14.89203966193987
FLOCK 1C-4              
1 40031U 14033X   18014.31225342  .00000518  00000-0  61007-4 0  9997
2 40031  97.9179 291.6244 0013838 328.7450  31.2940 14.89019992193905
QB50P2                  
1 40032U 14033Y   18014.33477886  .00000282  00000-0  36681-4 0  9990
2 40032  97.9056 288.9089 0011285 332.9435  27.1191 14.88166068193841
FLOCK 1C-11             
1 40033U 14033Z   18014.36557269 -.00000141  00000-0 -85244-5 0  9994
2 40033  97.9229 293.6106 0011598 324.5721  35.4719 14.90408070194045
ANTELSAT                
1 40034U 14033AA  18014.57140127  .00000241  00000-0  43581-4 0  9995
2 40034  97.8323 256.6148 0058447 334.0582  25.7699 14.73846331191526
FLOCK 1C-9              
1 40035U 14033AB  18014.32242196  .00000786  00000-0  89032-4 0  9993
2 40035  97.9246 292.1552 0011349 323.9535  36.0917 14.89227511193936
FLOCK 1C-6              
1 40036U 14033AC  18014.73153475  .00001114  00000-0  12336-3 0  9998
2 40036  97.9261 292.8359 0012089 324.9850  35.0591 14.89336398194009
PERSEUS-M2              
1 40037U 14033AD  18014.52365165  .00000127  00000-0  20685-4 0  9997
2 40037  97.9060 287.0940 0013908 338.7781  21.2856 14.86314098193703
FLOCK 1C-5              
1 40038U 14033AE  18014.33878862  .00000851  00000-0  95697-4 0  9999
2 40038  97.9228 292.1994 0013984 323.9252  36.0945 14.89305793193943
PERSEUS-M1              
1 40039U 14033AF  18014.30756041  .00000100  00000-0  17756-4 0  9998
2 40039  97.9062 286.3313 0013690 335.8412  24.2159 14.85936435193624
FLOCK 1C-8              
1 40040U 14033AG  18014.45568219  .00000544  00000-0  60458-4 0  9993
2 40040  97.9273 295.1686 0012032 307.1913  52.8196 14.91261148194121
